STARLINK-2513
1 18317C 21036AT  21326.17309194  .00004300  00000-0  28815-3 0  3261
2 18317  53.0541 292.9699 0001846  55.9004  13.1450 15.06388614    18
